[{"OBJECT_NAME":"STARLINK-33696","OBJECT_ID":"2025-070D","EPOCH":"2026-03-09T22:22:34.407552","MEAN_MOTION":15.27592398,"ECCENTRICITY":0.0002691,"INCLINATION":43.0024,"RA_OF_ASC_NODE":258.4226,"ARG_OF_PERICENTER":261.1923,"MEAN_ANOMALY":98.8625,"EPHEMERIS_TYPE":0,"CLASSIFICATION_TYPE":"U","NORAD_CAT_ID":63463,"ELEMENT_SET_NO":999,"REV_AT_EPOCH":5301,"BSTAR":0.0011422198,"MEAN_MOTION_DOT":0.00031316,"MEAN_MOTION_DDOT":0},{"OBJECT_NAME":"REAL","OBJECT_ID":"2025-154G","EPOCH":"2026-03-09T17:20:09.670560","MEAN_MOTION":15.28408058,"ECCENTRICITY":0.00018528,"INCLINATION":97.4133,"RA_OF_ASC_NODE":137.2581,"ARG_OF_PERICENTER":118.5876,"MEAN_ANOMALY":241.555,"EPHEMERIS_TYPE":0,"CLASSIFICATION_TYPE":"U","NORAD_CAT_ID":64875,"ELEMENT_SET_NO":999,"REV_AT_EPOCH":3483,"BSTAR":0.0008290401,"MEAN_MOTION_DOT":0.00022901,"MEAN_MOTION_DDOT":0}]
